CCSDS_OEM_VERS = 2.0  
CREATION_DATE  = 2026-03-24T10:47:20
ORIGINATOR     = ESOC/OPS-GFA                            
 
 



META_START
OBJECT_NAME          = LISA                                    
OBJECT_ID            = -1000                                   
CENTER_NAME          = SUN                     
REF_FRAME            = EME2000 
TIME_SYSTEM          = TCB
START_TIME           = 2036-12-23T00:00:30.346418            
STOP_TIME            = 2047-09-07T01:38:19.059002            
INTERPOLATION        = HERMITE                                 
INTERPOLATION_DEGREE = 7                                       
META_STOP

2041-08-03T04:54:01.764297     5.34075585424584597e+07   -1.27951826104517058e+08   -5.58710288356252462e+07    2.77992994125594528e+01    9.98645581533424576e+00    4.07035921611839502e+00   -2.12182681048350230e-06    5.08367336012262078e-06    2.21982206313899260e-06
2041-08-04T01:02:33.142049     5.54176753374124765e+07   -1.27214354237686217e+08   -5.55700556557981372e+07    2.76425289086708119e+01    1.03540607550746877e+01    4.23090684893272861e+00   -2.20212794343793286e-06    5.05538231763858919e-06    2.20830507182887719e-06
2041-08-04T21:11:04.519801     5.74162137527677119e+07   -1.26450302143246338e+08   -5.52574716326321587e+07    2.74799511568789079e+01    1.07195753514853962e+01    4.39060238057842600e+00   -2.28199873131160699e-06    5.02601863914272949e-06    2.19631986457217298e-06
2041-08-05T17:19:35.897552     5.94027538692051470e+07   -1.25659824236336485e+08   -5.49333397937775478e+07    2.73115979892085541e+01    1.10829220197084801e+01    4.54941193809403366e+00   -2.36142188950126949e-06    4.99558770241966813e-06    2.18386861161634619e-06
2041-08-06T13:28:07.275304     6.13768781129770353e+07   -1.24843080536351934e+08   -5.45977256140814200e+07    2.71375024882963984e+01    1.14440235739336966e+01    4.70730180985240931e+00   -2.44038020896669092e-06    4.96409513579401490e-06    2.17095359245931362e-06
2041-08-07T09:36:38.653056     6.33381713355999216e+07   -1.24000236626851410e+08   -5.42506969989591166e+07    2.69576989818063382e+01    1.18028032454414209e+01    4.86423845342960881e+00   -2.51885655884451546e-06    4.93154681410902237e-06    2.15757719412414577e-06
2041-08-08T05:45:10.030807     6.52862208989759982e+07   -1.23131463619606763e+08   -5.38923242696077451e+07    2.67722230367194776e+01    1.21591847002229496e+01    5.02018850329125055e+00   -2.59683388730043291e-06    4.89794885110432863e-06    2.14374190785646126e-06
2041-08-09T01:53:41.408558     6.72206167699308693e+07   -1.22236938126562983e+08   -5.35226801517291069e+07    2.65811114536257946e+01    1.25130920559179124e+01    5.17511877818236243e+00   -2.67429522061885623e-06    4.86330758817448930e-06    2.12945032423630643e-06
2041-08-09T22:02:12.786310     6.91409516281554997e+07   -1.21316842243476152e+08   -5.31418397694293261e+07    2.63844022611448246e+01    1.28644498978084805e+01    5.32899628810671366e+00   -2.75122366056304681e-06    4.82762957961548293e-06    2.11470512675156261e-06
2041-08-10T18:10:44.164062     7.10468209915404022e+07   -1.20371363548997104e+08   -5.27498806459625438e+07    2.61821347106025364e+01    1.32131832936102711e+01    5.48178824078161320e+00   -2.82760237995580097e-06    4.79092157421146502e-06    2.09950908376801366e-06
2041-08-11T14:19:15.541813     7.29378233628904223e+07   -1.19400695122968495e+08   -5.23468827129858211e+07    2.59743492710917430e+01    1.35592178067995093e+01    5.63346204745415324e+00   -2.90341461649678535e-06    4.75319049320370020e-06    2.08386503891489435e-06
2041-08-12T10:30:36.480039     7.48179281861076057e+07   -1.18402678013105348e+08   -5.19319474780712053e+07    2.57605825419419006e+01    1.39032789002287718e+01    5.78433594502703752e+00   -2.97881912794384394e-06    4.71435213339818767e-06    2.06773798517028809e-06
2041-08-13T06:41:57.418265     7.66822976177288443e+07   -1.17379757707663313e+08   -5.15060895792254508e+07    2.55413571347027109e+01    1.42444803287850288e+01    5.93402156129284730e+00   -3.05362121591811072e-06    4.67450086907206172e-06    2.05116700583851476e-06
2041-08-14T02:53:18.356491     7.85305365522036552e+07   -1.16332144731517598e+08   -5.10693965575538501e+07    2.53167174326250155e+01    1.45827487581751924e+01    6.08248674906328368e+00   -3.12780442126332114e-06    4.63364456132025570e-06    2.03415535425557311e-06
2041-08-14T23:04:39.294717     8.03622530966574699e+07   -1.15260054887080014e+08   -5.06219582678187937e+07    2.50867090124880150e+01    1.49180114323980231e+01    6.22969960063535311e+00   -3.20135236345293695e-06    4.59179126505548383e-06    2.01670636838974984e-06
2041-08-15T19:16:00.232944     8.21770587057693601e+07   -1.14163709239831120e+08   -5.01638668734013811e+07    2.48513786382125126e+01    1.52501961883943711e+01    6.37562845419232715e+00   -3.27424875857531534e-06    4.54894924387426398e-06    1.99882347743535774e-06
2041-08-16T15:27:21.171170     8.39745682931247652e+07   -1.13043334089289099e+08   -4.96952168347456083e+07    2.46107742532683744e+01    1.55792314716561506e+01    6.52024190063033249e+00   -3.34647743457530917e-06    4.50512698166724153e-06    1.98051020697266815e-06
2041-08-17T11:38:42.109396     8.57544003240686655e+07   -1.11899160928335547e+08   -4.92161048925947323e+07    2.43649449720737259e+01    1.59050463525609800e+01    6.66350879070792779e+00   -3.41802234375758286e-06    4.46033319097851173e-06    1.96177018269639708e-06
2041-08-18T07:50:03.047622     8.75161768950666487e+07   -1.10731426393826172e+08   -4.87266300473327860e+07    2.41139410705851347e+01    1.62275705431959736e+01    6.80539824241453495e+00   -3.48886757254473479e-06    4.41457681810430832e-06    1.94260713270839428e-06
2041-08-19T04:01:23.985848     8.92595238045806736e+07   -1.09540372211414441e+08   -4.82268935357439891e+07    2.38578139762779315e+01    1.65467344144341517e+01    6.94587964845355543e+00   -3.55899734850263470e-06    4.36786704494853251e-06    1.92302488838221485e-06
2041-08-20T00:12:44.924074     9.09840706204666048e+07   -1.08326245137516022e+08   -4.77169988065029234e+07    2.35966162577158443e+01    1.68624690130269457e+01    7.08492268373603729e+00   -3.62839604461258726e-06    4.32021328760650457e-06    1.90302738378704644e-06
2041-08-20T20:24:05.862300     9.26894507489006221e+07   -1.07089296901341945e+08   -4.71970514957083687e+07    2.33304016139092134e+01    1.71747060784763192e+01    7.22249731278074947e+00   -3.69704818081937330e-06    4.27162519171667405e-06    1.88261865368839616e-06
2041-08-21T16:35:26.800526     9.43753015098416358e+07   -1.05829784149928629e+08   -4.66671594037735611e+07    2.30592248636608552e+01    1.74833780594499508e+01    7.35857379691649438e+00   -3.76493842282928335e-06    4.22211262454811909e-06    1.86180283011147801e-06
2041-08-22T12:46:47.738751     9.60412642240363359e+07   -1.04547968399092436e+08   -4.61274324749857634e+07    2.27831419350988789e+01    1.77884181295029649e+01    7.49312270118253565e+00   -3.83205157815212925e-06    4.17168566380614962e-06    1.84058413745940098e-06
2041-08-23T08:58:08.676977     9.76869843165744841e+07   -1.03244115993236944e+08   -4.55779827810479626e+07    2.25022098555955807e+01    1.80897602018696873e+01    7.62611490082297649e+00   -3.89837258944680417e-06    4.12035458325332179e-06    1.81896688622907119e-06
2041-08-24T05:09:29.615203     9.93121114420013726e+07   -1.01918498076940715e+08   -4.50189245099156052e+07    2.22164867422716341e+01    1.83873389430889880e+01    7.75752158727095242e+00   -3.96388652508457836e-06    4.06812983501248524e-06    1.79695546526609522e-06
2041-08-25T01:20:50.553429     1.00916299635993719e+08   -1.00571390581253737e+08   -4.44503739612410665e+07    2.19260317932847180e+01    1.86810897852265114e+01    7.88731427351847536e+00   -4.02857856695605056e-06    4.01502202858995798e-06    1.77455433257547742e-06
2041-08-25T21:32:27.177502     1.02499546509251460e+08   -9.92027765056846291e+07   -4.38723237543339878e+07    2.16308410740884831e+01    1.89710110834994090e+01    8.01549228322972240e+00   -4.09244807357142218e-06    3.96103063140234711e-06    1.75176325183255683e-06
2041-08-26T17:44:03.801577     1.04061166005443692e+08   -9.78132295677326173e+07   -4.32850160023714453e+07    2.13310381102704198e+01    1.92569760151998182e+01    8.14199959720502520e+00   -4.15546640046734571e-06    3.90617796405025455e-06    1.72859162482008582e-06
2041-08-27T13:55:40.425650     1.05600825125416741e+08   -9.64030396543344408e+07   -4.26885731638074368e+07    2.10266852951101768e+01    1.95389223825557217e+01    8.26680872539712119e+00   -4.21761938836393331e-06    3.85047543486016223e-06    1.70504426129248230e-06
2041-08-28T10:07:17.049723     1.07118195378953099e+08   -9.49725011245768070e+07   -4.20831196738942042e+07    2.07178460465696688e+01    1.98167888233868297e+01    8.38989253015697933e+00   -4.27889300999122270e-06    3.79393462604847340e-06    1.68112604747124109e-06
2041-08-29T06:18:53.673796     1.08612952914028242e+08   -9.35219127659321874e+07   -4.14687819269117042e+07    2.04045847968608385e+01    2.00905148241529155e+01    8.51122423197653610e+00   -4.33927339239403480e-06    3.73656730439986215e-06    1.65684195086990039e-06
2041-08-30T02:30:30.297869     1.10084778618984297e+08   -9.20515777411230057e+07   -4.08456882540945560e+07    2.00869669805284268e+01    2.03600407336793978e+01    8.63077741553805922e+00   -4.39874683555039998e-06    3.67838542930208095e-06    1.63219702394138428e-06
2041-08-30T22:42:06.921943     1.11533358203350708e+08   -9.05618035274302065e+07   -4.02139688980944455e+07    1.97650590213130286e+01    2.06253077773710167e+01    8.74852603598590228e+00   -4.45729982731044942e-06    3.61940115814161352e-06    1.60719640654936368e-06
